[{"OBJECT_NAME":"STARLINK-1681","OBJECT_ID":"2020-070AD","EPOCH":"2026-03-10T00:00:02.999808","MEAN_MOTION":15.77686848,"ECCENTRICITY":0.00086189,"INCLINATION":53.0491,"RA_OF_ASC_NODE":72.8238,"ARG_OF_PERICENTER":15.0896,"MEAN_ANOMALY":335.2211,"EPHEMERIS_TYPE":0,"CLASSIFICATION_TYPE":"U","NORAD_CAT_ID":46559,"ELEMENT_SET_NO":999,"REV_AT_EPOCH":597,"BSTAR":0.0010315887,"MEAN_MOTION_DOT":0.00179651,"MEAN_MOTION_DDOT":0},{"OBJECT_NAME":"STARLINK-36786","OBJECT_ID":"2026-034Y","EPOCH":"2026-03-09T18:40:49.706112","MEAN_MOTION":15.80901859,"ECCENTRICITY":0.00013455,"INCLINATION":53.16,"RA_OF_ASC_NODE":210.7172,"ARG_OF_PERICENTER":79.2717,"MEAN_ANOMALY":280.8457,"EPHEMERIS_TYPE":0,"CLASSIFICATION_TYPE":"U","NORAD_CAT_ID":67872,"ELEMENT_SET_NO":999,"REV_AT_EPOCH":395,"BSTAR":0.00065729881,"MEAN_MOTION_DOT":0.00131193,"MEAN_MOTION_DDOT":0}]
